NORAD_CAT_ID,OBJECT_NAME,OBJECT_TYPE,EPOCH,MEAN_MOTION,ECCENTRICITY,INCLINATION,RA_OF_ASC_NODE,ARG_OF_PERICENTER,MEAN_ANOMALY,BSTAR,MEAN_MOTION_DOT,MEAN_MOTION_DDOT,TLE_LINE0,TLE_LINE1,TLE_LINE2,SEMIMAJOR_AXIS,PERIOD,APOGEE,PERIGEE,DECAYED
50815.0,STARLINK-3234,PAYLOAD,2023-03-08 21:56:39,15.08854099,9.48e-05,53.2161,52.7347,93.236,266.8741,0.0019669,0.00031166,0.0,0 STARLINK-3234,1 50815U 22001N   23067.91434189  .00031166  00000-0  19669-2 0  9991,2 50815  53.2161  52.7347 0000948  93.2360 266.8741 15.08854099 64835,6917.837,95.437,540.358,539.046,0.0
50815.0,STARLINK-3234,PAYLOAD,2023-03-09 21:47:25,15.08875661,0.0002658,53.2159,48.2752,82.2217,277.9077,0.0019163,0.00030373,0.0,0 STARLINK-3234,1 50815U 22001N   23068.90793809  .00030373  00000-0  19163-2 0  9996,2 50815  53.2159  48.2752 0002658  82.2217 277.9077 15.08875661 64980,6917.771,95.435,541.475,537.798,0.0
50815.0,STARLINK-3234,PAYLOAD,2023-03-10 05:44:21,15.08869054,0.000101,53.2153,46.7876,93.185,266.9258,0.0024512,0.0003897,0.0,0 STARLINK-3234,1 50815U 22001N   23069.23913436  .00038970  00000-0  24512-2 0  9998,2 50815  53.2153  46.7876 0001010  93.1850 266.9258 15.08869054 66305,6917.792,95.436,540.355,538.958,0.0
50815.0,STARLINK-3234,PAYLOAD,2023-03-10 15:16:40,15.08851547,0.000131,53.2154,45.0036,94.8524,265.2618,0.0012032,0.00018919,0.0,0 STARLINK-3234,1 50815U 22001N   23069.63657832  .00018919  00000-0  12032-2 0  9992,2 50815  53.2154  45.0036 0001310  94.8524 265.2618 15.08851547 66361,6917.845,95.437,540.616,538.804,0.0
50815.0,STARLINK-3234,PAYLOAD,2023-03-11 02:24:22,15.08838209,0.0001032,53.2157,42.922,119.4365,240.673,0.0017602,0.00027835,0.0,0 STARLINK-3234,1 50815U 22001N   23070.10026331  .00027835  00000-0  17602-2 0  9995,2 50815  53.2157  42.9220 0001032 119.4365 240.6730 15.08838209 66433,6917.886,95.438,540.465,539.037,0.0
50815.0,STARLINK-3234,PAYLOAD,2023-03-11 10:21:18,15.08858661,0.0001366,53.2159,41.4349,105.1212,254.9932,0.0024569,0.00039051,0.0,0 STARLINK-3234,1 50815U 22001N   23070.43146425  .00039051  00000-0  24569-2 0  9991,2 50815  53.2159  41.4349 0001366 105.1212 254.9932 15.08858661 65215,6917.823,95.436,540.633,538.743,0.0
50815.0,STARLINK-3234,PAYLOAD,2023-03-12 10:12:05,15.08872173,0.0001084,53.2153,36.9758,96.139,263.9725,0.0024365,0.00038736,0.0,0 STARLINK-3234,1 50815U 22001N   23071.42506542  .00038736  00000-0  24365-2 0  9994,2 50815  53.2153  36.9758 0001084  96.1390 263.9725 15.08872173 66636,6917.782,95.436,540.397,538.897,0.0
50815.0,STARLINK-3234,PAYLOAD,2023-03-12 21:19:47,15.08849901,0.000129,53.2166,34.8935,110.2362,249.8769,0.0014411,0.00022728,0.0,0 STARLINK-3234,1 50815U 22001N   23071.88874889  .00022728  00000-0  14411-2 0  9991,2 50815  53.2166  34.8935 0001290 110.2362 249.8769 15.08849901 66702,6917.85,95.437,540.608,538.823,0.0
50815.0,STARLINK-3234,PAYLOAD,2023-03-13 06:52:06,15.08867831,0.0001242,53.2164,33.1105,95.9749,264.1385,0.0011368,0.00017864,0.0,0 STARLINK-3234,1 50815U 22001N   23072.28618249  .00017864  00000-0  11368-2 0  9995,2 50815  53.2164  33.1105 0001242  95.9749 264.1385 15.08867831 65497,6917.795,95.436,540.52,538.801,0.0
50815.0,STARLINK-3234,PAYLOAD,2023-03-14 03:32:07,15.08836422,0.0001395,53.2173,29.2489,70.1178,289.9964,9.1083e-05,1.162e-05,0.0,0 STARLINK-3234,1 50815U 22001N   23073.14731197  .00001162  00000-0  91083-4 0  9997,2 50815  53.2173  29.2489 0001395  70.1178 289.9964 15.08836422 66893,6917.891,95.438,540.721,538.791,0.0
50815.0,STARLINK-3234,PAYLOAD,2023-03-14 06:42:53,15.08841048,0.0001349,53.2162,28.6472,98.7004,261.4141,0.00040077,6.096e-05,0.0,0 STARLINK-3234,1 50815U 22001N   23073.27978994  .00006096  00000-0  40077-3 0  9996,2 50815  53.2162  28.6472 0001349  98.7004 261.4141 15.08841048 65643,6917.877,95.437,540.675,538.809,0.0
50815.0,STARLINK-3234,PAYLOAD,2023-03-15 03:22:53,15.08884517,0.0001176,53.215,24.7801,81.0336,279.0789,0.0019745,0.00031314,0.0,0 STARLINK-3234,1 50815U 22001N   23074.14089999  .00031314  00000-0  19745-2 0  9999,2 50815  53.2150  24.7801 0001176  81.0336 279.0789 15.08884517 67041,6917.744,95.435,540.423,538.796,0.0
50815.0,STARLINK-3234,PAYLOAD,2023-03-15 06:33:39,15.0889794,0.0001241,53.2154,24.1861,80.176,279.9372,0.0019506,0.00030942,0.0,0 STARLINK-3234,1 50815U 22001N   23074.27337428  .00030942  00000-0  19506-2 0  9997,2 50815  53.2154  24.1861 0001241  80.1760 279.9372 15.08897940 65790,6917.703,95.434,540.427,538.71,0.0
50815.0,STARLINK-3234,PAYLOAD,2023-03-16 03:13:40,15.08844038,9.96e-05,53.2154,20.3237,118.2465,241.8628,0.0017328,0.000274,0.0,0 STARLINK-3234,1 50815U 22001N   23075.13450202  .00027400  00000-0  17328-2 0  9994,2 50815  53.2154  20.3237 0000996 118.2465 241.8628 15.08844038 67194,6917.868,95.437,540.422,539.044,0.0
50815.0,STARLINK-3234,PAYLOAD,2023-03-16 20:42:56,15.08831671,0.0001082,53.216,17.0509,101.6593,258.4521,0.0013771,0.00021691,0.0,0 STARLINK-3234,1 50815U 22001N   23075.86315043  .00021691  00000-0  13771-2 0  9991,2 50815  53.2160  17.0509 0001082 101.6593 258.4521 15.08831671 67309,6917.906,95.438,540.519,539.022,0.0
50815.0,STARLINK-3234,PAYLOAD,2023-03-17 03:04:28,15.08827719,0.0001207,53.2163,15.8649,122.3437,237.7672,0.00035323,5.336e-05,0.0,0 STARLINK-3234,1 50815U 22001N   23076.12811223  .00005336  00000-0  35323-3 0  9998,2 50815  53.2163  15.8649 0001207 122.3437 237.7672 15.08827719 67348,6917.918,95.438,540.618,538.948,0.0
50815.0,STARLINK-3234,PAYLOAD,2023-03-17 12:36:48,15.08816504,8.88e-05,53.2154,14.0786,107.379,252.7299,0.00031858,4.783e-05,0.0,0 STARLINK-3234,1 50815U 22001N   23076.52555951  .00004783  00000-0  31858-3 0  9999,2 50815  53.2154  14.0786 0000888 107.3790 252.7299 15.08816504 67409,6917.952,95.439,540.432,539.203,0.0
50815.0,STARLINK-3234,PAYLOAD,2023-03-17 18:58:21,15.08819905,9.72e-05,53.2159,12.8917,121.1468,238.962,4.0575e-05,3.58e-06,0.0,0 STARLINK-3234,1 50815U 22001N   23076.79052269  .00000358  00000-0  40575-4 0  9993,2 50815  53.2159  12.8917 0000972 121.1468 238.9620 15.08819905 66171,6917.942,95.439,540.479,539.134,0.0
50815.0,STARLINK-3234,PAYLOAD,2023-03-18 12:27:35,15.08838998,8.85e-05,53.2169,9.6183,100.5797,259.5295,0.00020088,2.911e-05,0.0,0 STARLINK-3234,1 50815U 22001N   23077.51916128  .00002911  00000-0  20088-3 0  9990,2 50815  53.2169   9.6183 0000885 100.5797 259.5295 15.08838998 67553,6917.883,95.438,540.361,539.136,0.0
50815.0,STARLINK-3234,PAYLOAD,2023-03-19 04:21:26,15.08881323,8.51e-05,53.2162,6.6438,95.0456,265.0633,0.0014196,0.00022403,0.0,0 STARLINK-3234,1 50815U 22001N   23078.18155289  .00022403  00000-0  14196-2 0  9997,2 50815  53.2162   6.6438 0000851  95.0456 265.0633 15.08881323 67658,6917.754,95.435,540.208,539.03,0.0
50815.0,STARLINK-3234,PAYLOAD,2023-03-19 12:18:22,15.08850796,0.0001684,53.2156,5.16,71.8684,288.2492,-2.0085e-06,-3.2e-06,0.0,0 STARLINK-3234,1 50815U 22001N   23078.51275734 -.00000320  00000-0 -20085-5 0  9995,2 50815  53.2156   5.1600 0001684  71.8684 288.2492 15.08850796 67702,6917.847,95.437,540.877,538.547,0.0
50815.0,STARLINK-3234,PAYLOAD,2023-03-20 04:12:13,15.08857997,8.55e-05,53.2162,2.1834,60.0319,300.0758,0.002035,0.00032264,0.0,0 STARLINK-3234,1 50815U 22001N   23079.17515268  .00032264  00000-0  20350-2 0  9999,2 50815  53.2162   2.1834 0000855  60.0319 300.0758 15.08857997 67808,6917.825,95.436,540.282,539.099,0.0
50815.0,STARLINK-3234,PAYLOAD,2023-03-21 04:03:00,15.08866975,8.31e-05,53.2161,357.724,67.4795,292.6285,0.0018946,0.00030016,0.0,0 STARLINK-3234,1 50815U 22001N   23080.16875302  .00030016  00000-0  18946-2 0  9999,2 50815  53.2161 357.7240 0000831  67.4795 292.6285 15.08866975 67953,6917.798,95.436,540.238,539.088,0.0
50815.0,STARLINK-3234,PAYLOAD,2023-03-21 21:32:14,15.08859267,9.85e-05,53.217,354.4533,94.9127,265.1977,0.002082,0.0003302,0.0,0 STARLINK-3234,1 50815U 22001N   23080.89739456  .00033020  00000-0  20820-2 0  9990,2 50815  53.2170 354.4533 0000985  94.9127 265.1977 15.08859267 66796,6917.821,95.436,540.368,539.005,0.0
50815.0,STARLINK-3234,PAYLOAD,2023-03-22 02:18:24,15.08859422,8.78e-05,53.2163,353.5612,85.1503,274.9589,0.0014373,0.00022673,0.0,0 STARLINK-3234,1 50815U 22001N   23081.09611249  .00022673  00000-0  14373-2 0  9990,2 50815  53.2163 353.5612 0000878  85.1503 274.9589 15.08859422 68092,6917.821,95.436,540.293,539.079,0.0
50815.0,STARLINK-3234,PAYLOAD,2023-03-22 21:23:01,15.08850506,9.25e-05,53.2167,349.9921,117.7344,242.3742,0.0011109,0.00017441,0.0,0 STARLINK-3234,1 50815U 22001N   23081.89099265  .00017441  00000-0  11109-2 0  9997,2 50815  53.2167 349.9921 0000925 117.7344 242.3742 15.08850506 66942,6917.848,95.437,540.353,539.073,0.0
50815.0,STARLINK-3234,PAYLOAD,2023-03-23 03:44:34,15.08853042,0.0001061,53.2166,348.8019,95.4578,264.6535,0.00098859,0.00015486,0.0,0 STARLINK-3234,1 50815U 22001N   23082.15595151  .00015486  00000-0  98859-3 0  9997,2 50815  53.2166 348.8019 0001061  95.4578 264.6535 15.08853042 68251,6917.841,95.437,540.44,538.972,0.0
50815.0,STARLINK-3234,PAYLOAD,2023-03-23 21:13:49,15.08830544,0.0002461,53.2147,345.5251,148.7566,211.3572,0.0013145,0.00020689,0.0,0 STARLINK-3234,1 50815U 22001N   23082.88459643  .00020689  00000-0  13145-2 0  9997,2 50815  53.2147 345.5251 0002461 148.7566 211.3572 15.08830544 68360,6917.909,95.438,541.477,538.072,0.0
50815.0,STARLINK-3234,PAYLOAD,2023-03-24 03:35:21,15.08921447,9.71e-05,53.2163,344.341,102.388,257.7221,0.004983,0.00080097,0.0,0 STARLINK-3234,1 50815U 22001N   23083.14955181  .00080097  00000-0  49830-2 0  9994,2 50815  53.2163 344.3410 0000971 102.3880 257.7221 15.08921447 68404,6917.631,95.432,540.168,538.825,0.0
50815.0,STARLINK-3234,PAYLOAD,2023-03-24 21:04:35,15.0886556,0.00011,53.2153,341.0683,92.7187,267.3931,0.0014957,0.00023613,0.0,0 STARLINK-3234,1 50815U 22001N   23083.87819045  .00023613  00000-0  14957-2 0  9995,2 50815  53.2153 341.0683 0001100  92.7187 267.3931 15.08865560 68516,6917.802,95.436,540.428,538.906,0.0
